IRIDIUM 57              
1 25273U 98019B   24197.52141059  .00000668  00000+0  22663-3 0  9997
2 25273  86.3957 286.2530 0002234  94.5245 265.6207 14.35282523376699
IRIDIUM 63              
1 25286U 98021B   24196.83730608  .00000521  00000+0  17341-3 0  9996
2 25286  86.3978 223.4404 0002117  90.5758 269.5681 14.35830243375421
IRIDIUM 69              
1 25319U 98026A   24197.51927797  .00000812  00000+0  25129-3 0  9997
2 25319  86.3963 237.4546 0004367  73.0727 287.0950 14.40079765374833
IRIDIUM 71              
1 25320U 98026B   24197.09638867  .00000676  00000+0  20686-3 0  9990
2 25320  86.3963 232.3886 0004333 104.9755 255.1924 14.40386791375304
IRIDIUM 73              
1 25344U 98032C   24197.51453388  .00001101  00000+0  27557-3 0  9991
2 25344  86.4443 189.6201 0002897  82.6840 277.4695 14.50627916382037
IRIDIUM 82              
1 25467U 98051A   24197.49125142  .00023776  00000+0  11550-2 0  9996
2 25467  86.3734 272.3329 0127059 116.5402 244.8928 15.11375665372760
